OBJECT_NAME,OBJECT_ID,EPOCH,MEAN_MOTION,ECCENTRICITY,INCLINATION,RA_OF_ASC_NODE,ARG_OF_PERICENTER,MEAN_ANOMALY,EPHEMERIS_TYPE,CLASSIFICATION_TYPE,NORAD_CAT_ID,ELEMENT_SET_NO,REV_AT_EPOCH,BSTAR,MEAN_MOTION_DOT,MEAN_MOTION_DDOT
FENGYUN 1C DEB,1999-025QQ,2026-03-01T00:44:07.892160,14.35903303,.0227711,98.3710,95.1203,247.4193,140.6609,0,U,30087,999,99819,.25329612E-3,.934E-5,0
FENGYUN 1C DEB,1999-025QR,2026-03-01T13:02:21.271200,14.36137601,.020175,98.3637,47.4955,12.3484,100.8370,0,U,30088,999,99803,.687E-3,.2477E-4,0
FENGYUN 1C DEB,1999-025QS,2026-03-01T08:38:21.391584,14.30426018,.0073791,98.9014,332.5785,342.3407,143.4975,0,U,30089,999,99603,.29764E-3,.751E-5,0
FENGYUN 1C DEB,1999-025QT,2026-03-01T12:07:08.829120,14.29256490,.0056988,99.4148,244.8269,245.8036,176.5527,0,U,30090,999,99395,.62385E-3,.1563E-4,0
FENGYUN 1C DEB,1999-025QV,2026-03-01T12:17:58.968384,14.39459734,.0082921,98.9278,247.9941,18.3984,41.1790,0,U,30092,999,99882,.42806E-3,.1339E-4,0
FENGYUN 1C DEB,1999-025QW,2026-03-01T15:11:17.978208,14.44201868,.0070074,98.8632,303.5049,100.9354,314.0223,0,U,30093,999,99942,.73208E-3,.254E-4,0
FENGYUN 1C DEB,1999-025QY,2026-03-01T19:00:42.388992,14.84782649,.0160045,99.2246,359.1006,83.1800,278.7590,0,U,30095,999,506,.18493E-2,.19717E-3,0
FENGYUN 1C DEB,1999-025QZ,2026-03-01T18:41:44.337696,14.31851242,.0079032,99.1371,149.2221,4.5487,355.6395,0,U,30096,999,99677,.26911E-3,.696E-5,0
FENGYUN 1C DEB,1999-025RC,2026-03-01T19:03:46.685376,14.26066308,.0061665,98.5276,136.0626,15.2894,101.0948,0,U,30099,999,99316,.25613E-3,.582E-5,0
FENGYUN 1C DEB,1999-025RF,2026-03-01T19:57:18.370368,14.22230055,.014249,98.3805,69.7242,128.5167,354.6922,0,U,30102,999,99082,.18099E-3,.405E-5,0
FENGYUN 1C DEB,1999-025RG,2026-03-01T12:50:48.859872,14.25095390,.0061933,99.2547,51.2130,255.0708,228.7291,0,U,30103,999,99041,.49735E-3,.114E-4,0
FENGYUN 1C DEB,1999-025RH,2026-03-01T18:55:53.056128,14.25960614,.0072554,98.3609,259.2444,235.7800,187.2566,0,U,30104,999,99019,.69715E-3,.1667E-4,0
FENGYUN 1C DEB,1999-025RJ,2026-03-01T12:01:28.020000,14.21611973,.0197631,98.6031,49.5597,205.2289,153.9135,0,U,30105,999,98881,.24231E-3,.602E-5,0
FENGYUN 1C DEB,1999-025RK,2026-03-01T09:04:11.273664,14.94020075,.0040792,98.9217,342.6582,313.5707,165.4556,0,U,30106,999,99715,.64526E-2,.70545E-3,0
FENGYUN 1C DEB,1999-025RL,2026-03-01T10:00:28.829376,14.14476259,.01281,98.8323,121.5592,52.2317,309.0379,0,U,30107,999,98673,.12513E-3,.216E-5,0
FENGYUN 1C DEB,1999-025RM,2026-03-01T12:23:54.842208,14.17315816,.0197141,98.6698,49.4338,155.2116,329.7686,0,U,30108,999,98714,.2095E-3,.469E-5,0
FENGYUN 1C DEB,1999-025RN,2026-03-01T19:49:58.330848,14.17705484,.0168081,98.5150,56.0616,4.6132,113.1294,0,U,30109,999,98672,.59397E-3,.1348E-4,0
FENGYUN 1C DEB,1999-025RP,2026-03-01T06:01:21.033696,13.56276792,.0268968,98.9053,166.6483,150.5825,211.0762,0,U,30110,999,94579,.33129E-3,.257E-5,0
FENGYUN 1C DEB,1999-025RR,2026-03-01T20:29:33.836640,14.22608434,.0199033,99.2920,44.0561,242.7196,115.3586,0,U,30112,999,98707,.53753E-3,.1418E-4,0
FENGYUN 1C DEB,1999-025RS,2026-03-01T13:33:13.618944,14.46558089,.0038521,99.0381,282.8939,125.9099,264.6581,0,U,30113,999,99048,.17973E-2,.6492E-4,0
FENGYUN 1C DEB,1999-025RT,2026-03-01T19:23:00.177216,14.09729084,.0080106,98.7500,65.9496,256.2140,231.0456,0,U,30114,999,98268,.2406E-3,.391E-5,0
FENGYUN 1C DEB,1999-025RU,2026-03-01T13:53:54.003264,14.20150633,.0067703,98.6150,90.8196,191.2608,320.0628,0,U,30115,999,98447,.90892E-3,.1941E-4,0
FENGYUN 1C DEB,1999-025RV,2026-03-01T04:15:49.425696,14.29945466,.00229413,99.3892,142.3139,123.8334,266.3668,0,U,30116,999,98630,.1491965E-2,.3807E-4,0
FENGYUN 1C DEB,1999-025RW,2026-03-01T12:53:52.224864,14.07234484,.0163943,98.8127,52.0035,348.1078,137.0204,0,U,30117,999,98097,.27466E-3,.477E-5,0
FENGYUN 1C DEB,1999-025RX,2026-03-01T15:11:52.181376,14.05159014,.0084085,98.8056,67.0681,197.5699,283.3707,0,U,30118,999,98039,.52721E-5,-.34E-6,0
FENGYUN 1C DEB,1999-025RY,2026-03-01T11:07:22.745280,14.22772225,.0132294,97.9268,51.5509,59.9178,90.1447,0,U,30119,999,98299,.1822E-2,.4434E-4,0
FENGYUN 1C DEB,1999-025RZ,2026-03-01T19:00:39.244032,14.28355943,.0059714,98.8442,148.7287,342.7717,139.9535,0,U,30120,999,98499,.14145E-2,.3557E-4,0
FENGYUN 1C DEB,1999-025SA,2026-03-01T17:41:10.865184,14.41291942,.002811,102.1586,120.0579,310.8282,162.9516,0,U,30121,999,98677,.2367E-2,.7624E-4,0
FENGYUN 1C DEB,1999-025SC,2026-03-01T18:41:44.375712,14.26841730,.0225419,96.9309,349.8935,203.7594,155.3056,0,U,30123,999,98374,.70387E-3,.2201E-4,0
FENGYUN 1C DEB,1999-025SD,2026-03-01T18:47:22.972128,14.14558155,.0141973,99.1216,121.3891,241.9450,241.2487,0,U,30124,999,98032,.9499E-3,.1962E-4,0
FENGYUN 1C DEB,1999-025SE,2026-03-01T20:05:05.503200,14.23529236,.0340889,98.7187,164.0764,114.6791,8.3528,0,U,30125,999,98046,.11369E-2,.468E-4,0
FENGYUN 1C DEB,1999-025SG,2026-03-01T01:56:38.636736,14.39437334,.00822405,98.2106,278.2162,204.4272,155.3010,0,U,30127,999,98362,.24183221E-2,.7799E-4,0
FENGYUN 1C DEB,1999-025SH,2026-03-01T18:05:59.252928,14.48550949,.0101002,96.9852,50.7461,235.8254,252.1685,0,U,30128,999,98454,.30587E-2,.12238E-3,0
FENGYUN 1C DEB,1999-025SJ,2026-03-01T19:26:23.451360,14.01784814,.0185029,98.0409,358.3275,227.2136,153.0356,0,U,30129,999,97586,.33154E-3,.548E-5,0
FENGYUN 1C DEB,1999-025SL,2026-03-01T19:58:54.087744,14.22042779,.0078952,99.0696,159.8719,290.2189,193.2723,0,U,30131,999,97812,.21864E-2,.4946E-4,0
FENGYUN 1C DEB,1999-025SM,2026-03-01T19:55:39.055296,13.94961519,.0104115,99.5884,22.4314,196.5404,228.2210,0,U,30132,999,97192,.5259E-3,.692E-5,0
FENGYUN 1C DEB,1999-025SN,2026-03-01T11:08:34.718208,14.07130605,.008329,98.3293,225.9692,37.1677,24.4799,0,U,30133,999,97485,.14514E-2,.2468E-4,0
FENGYUN 1C DEB,1999-025SP,2026-03-01T20:14:23.304192,14.13511967,.0017982,98.6893,82.6244,323.0060,215.3342,0,U,30134,999,98363,.50666E-3,.912E-5,0
FENGYUN 1C DEB,1999-025SR,2026-03-01T03:22:23.502720,13.95433300,.0127459,98.5512,312.4070,211.4497,317.5285,0,U,30136,999,97184,.33355145E-3,.444E-5,0
FENGYUN 1C DEB,1999-025ST,2026-03-01T15:36:01.099008,14.20324289,.0018708,98.7493,118.0914,266.1801,225.4223,0,U,30138,999,98521,.84912E-3,.1776E-4,0
FENGYUN 1C DEB,1999-025SU,2026-03-01T12:25:22.702368,14.03992477,.0131116,98.3651,262.8952,66.9424,355.1788,0,U,30139,999,97355,.96132E-3,.1602E-4,0
FENGYUN 1C DEB,1999-025SV,2026-03-01T09:56:53.179296,14.21283620,.0042064,98.8178,128.1800,88.1574,333.4073,0,U,30140,999,98261,.14247E-2,.309E-4,0
FENGYUN 1C DEB,1999-025SW,2026-03-01T11:21:09.798048,14.53579365,.0014664,99.0163,353.0540,153.4091,206.7858,0,U,30141,999,99387,.2629E-2,.10963E-3,0
FENGYUN 1C DEB,1999-025SX,2026-03-01T18:40:04.504224,14.11074929,.010245,99.1204,142.7838,88.9236,272.3670,0,U,30142,999,97413,.15313E-2,.285E-4,0
FENGYUN 1C DEB,1999-025SY,2026-03-01T11:16:57.142848,14.02921867,.0102864,98.7384,245.6031,70.8726,343.9950,0,U,30143,999,97323,.95983E-3,.1518E-4,0
FENGYUN 1C DEB,1999-025SZ,2026-03-01T12:19:44.270112,13.91928942,.0127328,99.0170,56.0919,75.9657,46.8920,0,U,30144,999,96936,.62501E-3,.81E-5,0
FENGYUN 1C DEB,1999-025TA,2026-03-01T20:46:34.949856,14.14910859,.0087887,99.2665,178.4260,282.7946,191.3519,0,U,30145,999,97314,.29517E-2,.5876E-4,0
FENGYUN 1C DEB,1999-025TB,2026-03-01T10:18:16.792128,13.86728186,.017712,98.0276,213.9551,263.8309,158.2886,0,U,30146,999,96508,.72426E-3,.918E-5,0
FENGYUN 1C DEB,1999-025TD,2026-03-01T09:15:56.460096,13.88653146,.0133053,99.5526,216.5712,347.3025,75.1911,0,U,30148,999,96608,.65459E-3,.799E-5,0
FENGYUN 1C DEB,1999-025TF,2026-03-01T09:18:20.157120,13.86735308,.0148167,99.0004,198.4113,123.6587,258.8376,0,U,30150,999,96548,.5365E-3,.64E-5,0
FENGYUN 1C DEB,1999-025TG,2026-03-01T13:37:36.132384,13.84621767,.0164451,99.0635,70.8387,67.0402,54.4784,0,U,30151,999,96336,.10596E-2,.1281E-4,0
FENGYUN 1C DEB,1999-025TH,2026-03-01T14:32:10.059936,13.97217219,.0160284,99.0840,282.4343,230.1501,128.5469,0,U,30152,999,96479,.18803E-2,.289E-4,0
FENGYUN 1C DEB,1999-025TJ,2026-03-01T12:11:04.672608,13.78990556,.0200122,100.4727,64.0749,165.2332,346.6170,0,U,30153,999,95860,.78912E-3,.883E-5,0
FENGYUN 1C DEB,1999-025TK,2026-03-01T00:44:22.904160,13.86304507,.01787477,98.4428,99.2314,344.2199,80.3591,0,U,30154,999,96069,.12916566E-2,.1655E-4,0
FENGYUN 1C DEB,1999-025TL,2026-03-01T17:38:03.237216,13.74324393,.0247397,99.7483,140.9102,141.5112,220.3970,0,U,30155,999,94949,.36221E-2,.4224E-4,0
FENGYUN 1C DEB,1999-025TM,2026-03-01T10:59:39.819264,13.81092303,.0201136,98.9236,28.1381,51.0434,65.5210,0,U,30156,999,95777,.19842E-2,.2407E-4,0
FENGYUN 1C DEB,1999-025TN,2026-03-01T18:15:15.634368,14.46389761,.0033658,98.7106,164.9202,314.0304,198.6335,0,U,30157,999,99214,.21511E-2,.7739E-4,0
FENGYUN 1C DEB,1999-025TR,2026-03-01T19:21:06.024672,13.43078099,.0342432,98.8932,5.2017,288.9360,95.8037,0,U,30160,999,93475,.86591E-3,.661E-5,0
FENGYUN 1C DEB,1999-025TS,2026-03-01T10:43:10.071840,13.49957763,.0328441,100.5123,57.2227,67.5421,83.3972,0,U,30161,999,93621,.21867E-2,.1896E-4,0
FENGYUN 1C DEB,1999-025TT,2026-03-01T16:57:49.409568,13.53832836,.0317635,99.4808,118.6246,150.8510,330.0384,0,U,30162,999,93729,.26666E-2,.2443E-4,0
FENGYUN 1C DEB,1999-025TU,2026-03-01T19:44:52.906848,13.39030901,.0367886,98.6988,169.8165,33.8057,81.8947,0,U,30163,999,93003,.12223E-2,.937E-5,0
FENGYUN 1C DEB,1999-025TY,2026-03-01T20:31:27.103584,14.48837251,.014183,98.9597,155.8978,277.5517,209.8523,0,U,30167,999,503,.41348E-3,.1717E-4,0
FENGYUN 1C DEB,1999-025TZ,2026-03-01T15:00:20.539872,14.54126089,.0096393,97.3794,128.7130,264.7272,94.2923,0,U,30168,999,99457,.16531E-2,.7396E-4,0
FENGYUN 1C DEB,1999-025UA,2026-03-01T18:33:43.105248,14.60577203,.0204547,98.3253,135.6167,341.8679,145.1736,0,U,30169,999,98876,.18249E-2,.11885E-3,0
FENGYUN 1C DEB,1999-025UB,2026-03-01T12:47:46.446144,14.00378003,.0080675,98.8509,50.0455,56.9211,71.2839,0,U,30170,999,97518,.32066E-3,.446E-5,0
